{"type":"FeatureCollection","features":[{"type":"Feature","geometry":{"type":"Polygon","coordinates":[[[76.74504868687644,29.472218874707774],[76.75038172892017,29.47324887913813],[76.76008474401478,29.476379158077837],[76.77319451638289,29.47212965904291],[76.78169355851033,29.473721514788885],[76.78649156698428,29.48258180304484],[76.79505748406413,29.486568228461174],[76.81559610336484,29.475652347679198],[76.82594123324364,29.473797350695435],[76.83902868049064,29.478568561267743],[76.84548099241644,29.482849364255816],[76.84822783940798,29.491330570073533],[76.8575607509712,29.49512973585044],[76.86559153805278,29.494447430812784],[76.87314526794451,29.492570177144994],[76.87834016840725,29.489850133595283],[76.88349042874461,29.484227187004326],[76.8868793373257,29.47773920752618],[76.8913740472365,29.472789590480538],[76.89537833496539,29.473262236709648],[76.89969472082522,29.478929799981728],[76.9065038291023,29.48567196236383],[76.9103921540521,29.48569421999199],[76.91684003117923,29.48297868805187],[76.92572702862924,29.480972032771994],[76.92175397963545,29.475121726221705],[76.93678110353277,29.469579081181706],[76.94377296164014,29.46334079006391],[76.9523478456253,29.462939415172546],[76.96084687900797,29.467349482904144],[76.96795022727463,29.471888882918865],[76.97627985219427,29.467251388850862],[76.9894029780922,29.456010046787362],[76.99491890912944,29.45301795831541],[77.00456387034531,29.45172928887948],[77.01843168456558,29.45214846097141],[77.03370860745866,29.45470795744002],[77.04323768488611,29.45315167734053],[77.0585636483233,29.446311438048554],[77.06539048943895,29.44565148644195],[77.10954453196592,29.44880406490915],[77.12413919098908,29.45294210895488],[77.11783402358378,29.45646041578516],[77.11429791009944,29.461860364591384],[77.11402143969012,29.470292543062616],[77.11544838537878,29.475402671330862],[77.12039352968549,29.480062428061213],[77.1233231022754,29.486059875288653],[77.11989408175835,29.497328044249777],[77.11451643452828,29.503160527573776],[77.10340876051569,29.50954149754153],[77.09761196709454,29.512011836279797],[77.08648648129284,29.52826082736637],[77.08490796907175,29.533589484095863],[77.08622786137856,29.539502177462225],[77.08941609232012,29.544692613305493],[77.09529766716958,29.54765344303406],[77.10442991824596,29.5489109297319],[77.10971846292443,29.552990955303006],[77.10675756341371,29.566359382465293],[77.10198184704247,29.576998768675857],[77.09378161671277,29.587210146001627],[77.08989775319097,29.590429599552383],[77.08680753804178,29.59647166955303],[77.0856170068344,29.600801515499025],[77.09218519883687,29.608671794382857],[77.09388857068295,29.61297032956214],[77.0945262532136,29.617772830207223],[77.1004791397948,29.622272021062813],[77.10160287929124,29.624920758935342],[77.10106779164589,29.633080894970824],[77.10489817278992,29.635578001072474],[77.10782777332598,29.639961285046063],[77.10970502959843,29.647238512120538],[77.12180257789987,29.653539244753613],[77.12941870090138,29.658591442613574],[77.1313004465642,29.662992534251007],[77.13113997789955,29.666350298498685],[77.11997880105612,29.68025816860476],[77.1191717265946,29.68584096422667],[77.12110253321661,29.69155755972271],[77.12552589694756,29.696912975577977],[77.13218784843353,29.69948139478981],[77.13987528697874,29.700230511090872],[77.14259986547468,29.701639583491442],[77.1433266432993,29.705969332737308],[77.14021419492735,29.7172687068669],[77.12256064775158,29.736041540265],[77.12256512504622,29.742819398317838],[77.11515848491183,29.74495974658053],[77.11295128511127,29.74859838032853],[77.11421766438747,29.754288202272456],[77.11786071282332,29.760432869653147],[77.11889526744237,29.764223026596454],[77.11704475686886,29.77090284217732],[77.11828431591047,29.77554920941095],[77.12349701321371,29.777850067860776],[77.13199613015874,29.778978231498456],[77.1374361922474,29.782202164859196],[77.1422252396204,29.787570925789574],[77.15238308214369,29.793278528184278],[77.15400625553795,29.79768866814799],[77.15171867527981,29.803472083299113],[77.15209774749651,29.807659132161426],[77.15397053437592,29.81378154815108],[77.15564713550313,29.816791395491393],[77.16526991125558,29.8244878215044],[77.16903785768929,29.829580103869755],[77.16704016590757,29.84371101676098],[77.16758864814727,29.846390919006055],[77.17810769684509,29.862158285470358],[77.18006071450827,29.86914127633571],[77.18245523863224,29.873279335305913],[77.18229475113107,29.88159110605739],[77.1849657122457,29.890308569282784],[77.18485427715889,29.8949014631108],[77.17955686587617,29.902267911053528],[77.18016776671135,29.906209761975447],[77.18591106364704,29.9130500192543],[77.18689650593535,29.917482398762374],[77.18913058937544,29.92203958056632],[77.1955739409473,29.927270132551946],[77.20256578927005,29.931091541412584],[77.21112733280965,29.94070981821703],[77.18791765101386,29.938712123808596],[77.18055122340095,29.941311805130773],[77.1729261696899,29.949133103039987],[77.17603416539039,29.9565485334808],[77.17045580885134,29.959870544300493],[77.16436915289151,29.967580341851765],[77.15526368627701,29.973060602601304],[77.15241432760645,29.970447596559396],[77.1492483131234,29.970621504147605],[77.14470452465801,29.974170961558432],[77.14089200793731,29.974398325876916],[77.1346269625917,29.971843245758475],[77.12866962866352,29.968088691528834],[77.12396080374243,29.96766061904148],[77.12153507949336,29.970331635434118],[77.12415253490629,29.98385166954626],[77.1190780518756,29.987302958841298],[77.10280677386133,29.995489871746067],[77.10189720282006,29.993171137584326],[77.10423376532076,29.98238016634307],[77.09497663311932,29.967040778452],[77.08235288685084,29.9539711729975],[77.06305835386839,29.951331374432407],[77.05410004631047,29.952958964128168],[77.05027858830056,29.952040427178588],[77.04692979394441,29.948762932753866],[77.04132029823836,29.950163135804814],[77.02445150221142,29.956820593244448],[77.02199003191573,29.95636125316707],[77.01085572421074,29.94950321409939],[77.00206684515535,29.952191975149237],[76.99565905819628,29.956401392399712],[76.99165928189773,29.954439391278594],[76.9894029780922,29.95544271119801],[76.99017436045521,29.969230263230774],[76.98799835883696,29.969760891912898],[76.96922102783886,29.968730788850266],[76.96399498785037,29.961591799018624],[76.96246551218503,29.95373928953856],[76.95433213158802,29.94815206938389],[76.9412669535756,29.936580690011578],[76.93361514802825,29.927051584212542],[76.93000770370666,29.92656106626859],[76.89800472023003,29.929281159531207],[76.88745011300271,29.924911230214647],[76.87489322936645,29.928679209477497],[76.86604188575602,29.928991340137284],[76.85459098459876,29.931421530338547],[76.85234799565164,29.936130316023092],[76.84757232536744,29.936652075904593],[76.83883693975713,29.934328833759512],[76.82705597544937,29.929450572244836],[76.82631137769563,29.922173356089644],[76.82656993253332,29.914343139486547],[76.81884676077958,29.915386550789023],[76.81690262527091,29.9208311228042],[76.81507885947478,29.934239653898484],[76.80811376784908,29.93803880463414],[76.80007846753755,29.934529523659215],[76.7947141826343,29.938391065718605],[76.79042890903648,29.944620432475826],[76.78295104859603,29.949110805340197],[76.7775421843328,29.94742076097227],[76.77200392820657,29.942881418019066],[76.75113532137925,29.938466930374243],[76.74388037503356,29.929321303154023],[76.74128076070966,29.922739675331997],[76.7388059694502,29.91213142091894],[76.73523865108514,29.906900899422077],[76.72892014427755,29.90011864340384],[76.72200847356753,29.89552133403786],[76.71808448379618,29.888520476666013],[76.71325531858298,29.886429198621837],[76.70701701326635,29.886090275541846],[76.7014699201813,29.88724072241682],[76.69822810833249,29.88943904579542],[76.68866780256884,29.89962814634926],[76.68258114421336,29.897001701921724],[76.6800438781664,29.888609684109266],[76.67836728814655,29.878630223338902],[76.67530832861274,29.87128163282379],[76.66552062443785,29.868329676668704],[76.66533778232287,29.865119186095196],[76.66950255189124,29.863050098162738],[76.67500514238384,29.861721295455986],[76.68002158721559,29.856098376459375],[76.6791699466051,29.840669860083892],[76.67723025337555,29.83595216950593],[76.6775379277983,29.83003049595835],[76.6948168924201,29.82628041181546],[76.70163932017998,29.823497886549045],[76.70469825918711,29.81688056810068],[76.69117828978888,29.80146103227718],[76.68888188662828,29.79327860122631],[76.68790978350336,29.783771765787492],[76.67745766114669,29.772851444130875],[76.67569178193773,29.76721069302654],[76.67621797105356,29.76235020629664],[76.685591031003,29.751942739852872],[76.68325893224453,29.744741284480007],[76.68575155393727,29.73353110563442],[76.68525659288508,29.724768908714],[76.6787775168596,29.70773963942229],[76.6814708432743,29.70252250348577],[76.69999834172395,29.695789249061068],[76.70112653872718,29.692311142040086],[76.70120229767116,29.686902256297614],[76.69480350179337,29.678889268468613],[76.68937683348965,29.674318681672457],[76.68485079033532,29.67678456178051],[76.68020440813895,29.681069776029766],[76.67584791195709,29.687339257943478],[76.67220479865257,29.688231032265715],[76.66792856440348,29.67533980977088],[76.66195775516148,29.672789229030524],[76.6488569421932,29.675437864706506],[76.64095098117501,29.67410019077076],[76.6363580766809,29.668829488424677],[76.63452093898525,29.660999321159192],[76.62755580996104,29.655969473773734],[76.6110304063676,29.648821551714924],[76.60302186099446,29.64039830421644],[76.59165111119036,29.632701914421304],[76.58518992975164,29.63205089830277],[76.57731071119196,29.634066377278092],[76.5660113147227,29.632122224566373],[76.5545291582938,29.633509014626075],[76.53762017322194,29.625910695578593],[76.53470400145562,29.62245040055158],[76.53024930518362,29.619311197536778],[76.52313260410976,29.61796904828075],[76.52133115922018,29.6142322999638],[76.53663474546316,29.59437142056448],[76.53837379280687,29.589123054638655],[76.53724115665156,29.585297159338126],[76.53375418722982,29.581988549951507],[76.52820705490025,29.58046793659914],[76.52102787250723,29.57480045691254],[76.51371940031584,29.555358765488887],[76.51545849156756,29.547849608964455],[76.51371940031584,29.544242205925205],[76.498411336945,29.542240074675256],[76.49591868348811,29.536380812190725],[76.48999703875404,29.530940735688198],[76.48193940212168,29.518905592427096],[76.4820553530417,29.518722805557005],[76.48210882808868,29.518633596100948],[76.48446770875285,29.51263170721437],[76.49067478747864,29.500997866874847],[76.49735899498724,29.49784973719992],[76.49843807110163,29.489480027595373],[76.51016104072662,29.489011839965148],[76.52026982904454,29.49068841796236],[76.52275804396233,29.490238071100972],[76.5244658741648,29.486331877295076],[76.51824100657473,29.470622462496507],[76.52160762763974,29.46903950035347],[76.52813128143002,29.468138746716726],[76.53481099624919,29.462377580610024],[76.54003255185852,29.46194951092133],[76.5459586968531,29.463001897337243],[76.55664718922495,29.46754126221528],[76.56170823881129,29.46734061333238],[76.56610047007463,29.46864266312077],[76.5701003158594,29.47178181045778],[76.57454604965244,29.473141893374148],[76.58335725821416,29.47422094649769],[76.59166010429718,29.478171719982576],[76.59726515562906,29.47783287383913],[76.60871166127835,29.480691124493934],[76.61331349564114,29.479683334490733],[76.61817837858844,29.477386893991067],[76.63131928156639,29.47719075426888],[76.64718478699037,29.497537629431577],[76.65025262061154,29.496721597056997],[76.65470728525453,29.49372952980903],[76.68168485141052,29.482702184153258],[76.68927869003322,29.481422409788298],[76.69638649308754,29.48212248904545],[76.70497027873984,29.4864924554508],[76.71228763118124,29.487928261611913],[76.72107652495998,29.487460059864436],[76.72911187772544,29.484628514175704],[76.73835560186453,29.478729153291475],[76.74504868687644,29.472218874707774]]]},"id":"000100000000000016f6","properties":{"ADM0_CODE":115,"ADM0_NAME":"India","ADM1_CODE":1492,"ADM1_NAME":"Haryana","ADM2_CODE":17660,"ADM2_NAME":"Karnal","DISP_AREA":"NO","EXP2_YEAR":3000,"STATUS":"Member State","STR2_YEAR":1990,"Shape_Area":0.240933126126,"Shape_Leng":2.77367141357}}]}