{"type":"FeatureCollection","features":[{"type":"Feature","geometry":{"geodesic":false,"type":"Polygon","coordinates":[[[76.48193940212168,29.44565148644195],[76.61776749982326,29.44565148644195],[76.61776749982326,29.563639776965584],[76.48193940212168,29.563639776965584],[76.48193940212168,29.44565148644195]]]},"id":"0","properties":{"tile_id":0}},{"type":"Feature","geometry":{"geodesic":false,"type":"Polygon","coordinates":[[[76.48193940212168,29.563639776965584],[76.61776749982326,29.563639776965584],[76.61776749982326,29.681628067489218],[76.48193940212168,29.681628067489218],[76.48193940212168,29.563639776965584]]]},"id":"1","properties":{"tile_id":1}},{"type":"Feature","geometry":{"geodesic":false,"type":"Polygon","coordinates":[[[76.61776749982326,29.44565148644195],[76.75359559752484,29.44565148644195],[76.75359559752484,29.563639776965584],[76.61776749982326,29.563639776965584],[76.61776749982326,29.44565148644195]]]},"id":"5","properties":{"tile_id":5}},{"type":"Feature","geometry":{"geodesic":false,"type":"Polygon","coordinates":[[[76.61776749982326,29.563639776965584],[76.75359559752484,29.563639776965584],[76.75359559752484,29.681628067489218],[76.61776749982326,29.681628067489218],[76.61776749982326,29.563639776965584]]]},"id":"6","properties":{"tile_id":6}},{"type":"Feature","geometry":{"geodesic":false,"type":"Polygon","coordinates":[[[76.61776749982326,29.681628067489218],[76.75359559752484,29.681628067489218],[76.75359559752484,29.79961635801285],[76.61776749982326,29.79961635801285],[76.61776749982326,29.681628067489218]]]},"id":"7","properties":{"tile_id":7}},{"type":"Feature","geometry":{"geodesic":false,"type":"Polygon","coordinates":[[[76.61776749982326,29.79961635801285],[76.75359559752484,29.79961635801285],[76.75359559752484,29.917604648536486],[76.61776749982326,29.917604648536486],[76.61776749982326,29.79961635801285]]]},"id":"8","properties":{"tile_id":8}},{"type":"Feature","geometry":{"geodesic":false,"type":"Polygon","coordinates":[[[76.61776749982326,29.917604648536486],[76.75359559752484,29.917604648536486],[76.75359559752484,30.03559293906012],[76.61776749982326,30.03559293906012],[76.61776749982326,29.917604648536486]]]},"id":"9","properties":{"tile_id":9}},{"type":"Feature","geometry":{"geodesic":false,"type":"Polygon","coordinates":[[[76.75359559752484,29.44565148644195],[76.88942369522641,29.44565148644195],[76.88942369522641,29.563639776965584],[76.75359559752484,29.563639776965584],[76.75359559752484,29.44565148644195]]]},"id":"10","properties":{"tile_id":10}},{"type":"Feature","geometry":{"geodesic":false,"type":"Polygon","coordinates":[[[76.75359559752484,29.563639776965584],[76.88942369522641,29.563639776965584],[76.88942369522641,29.681628067489218],[76.75359559752484,29.681628067489218],[76.75359559752484,29.563639776965584]]]},"id":"11","properties":{"tile_id":11}},{"type":"Feature","geometry":{"geodesic":false,"type":"Polygon","coordinates":[[[76.75359559752484,29.681628067489218],[76.88942369522641,29.681628067489218],[76.88942369522641,29.79961635801285],[76.75359559752484,29.79961635801285],[76.75359559752484,29.681628067489218]]]},"id":"12","properties":{"tile_id":12}},{"type":"Feature","geometry":{"geodesic":false,"type":"Polygon","coordinates":[[[76.75359559752484,29.79961635801285],[76.88942369522641,29.79961635801285],[76.88942369522641,29.917604648536486],[76.75359559752484,29.917604648536486],[76.75359559752484,29.79961635801285]]]},"id":"13","properties":{"tile_id":13}},{"type":"Feature","geometry":{"geodesic":false,"type":"Polygon","coordinates":[[[76.75359559752484,29.917604648536486],[76.88942369522641,29.917604648536486],[76.88942369522641,30.03559293906012],[76.75359559752484,30.03559293906012],[76.75359559752484,29.917604648536486]]]},"id":"14","properties":{"tile_id":14}},{"type":"Feature","geometry":{"geodesic":false,"type":"Polygon","coordinates":[[[76.88942369522641,29.44565148644195],[77.02525179292799,29.44565148644195],[77.02525179292799,29.563639776965584],[76.88942369522641,29.563639776965584],[76.88942369522641,29.44565148644195]]]},"id":"15","properties":{"tile_id":15}},{"type":"Feature","geometry":{"geodesic":false,"type":"Polygon","coordinates":[[[76.88942369522641,29.563639776965584],[77.02525179292799,29.563639776965584],[77.02525179292799,29.681628067489218],[76.88942369522641,29.681628067489218],[76.88942369522641,29.563639776965584]]]},"id":"16","properties":{"tile_id":16}},{"type":"Feature","geometry":{"geodesic":false,"type":"Polygon","coordinates":[[[76.88942369522641,29.681628067489218],[77.02525179292799,29.681628067489218],[77.02525179292799,29.79961635801285],[76.88942369522641,29.79961635801285],[76.88942369522641,29.681628067489218]]]},"id":"17","properties":{"tile_id":17}},{"type":"Feature","geometry":{"geodesic":false,"type":"Polygon","coordinates":[[[76.88942369522641,29.79961635801285],[77.02525179292799,29.79961635801285],[77.02525179292799,29.917604648536486],[76.88942369522641,29.917604648536486],[76.88942369522641,29.79961635801285]]]},"id":"18","properties":{"tile_id":18}},{"type":"Feature","geometry":{"geodesic":false,"type":"Polygon","coordinates":[[[76.88942369522641,29.917604648536486],[77.02525179292799,29.917604648536486],[77.02525179292799,30.03559293906012],[76.88942369522641,30.03559293906012],[76.88942369522641,29.917604648536486]]]},"id":"19","properties":{"tile_id":19}},{"type":"Feature","geometry":{"geodesic":false,"type":"Polygon","coordinates":[[[77.02525179292799,29.44565148644195],[77.16107989062957,29.44565148644195],[77.16107989062957,29.563639776965584],[77.02525179292799,29.563639776965584],[77.02525179292799,29.44565148644195]]]},"id":"20","properties":{"tile_id":20}},{"type":"Feature","geometry":{"geodesic":false,"type":"Polygon","coordinates":[[[77.02525179292799,29.563639776965584],[77.16107989062957,29.563639776965584],[77.16107989062957,29.681628067489218],[77.02525179292799,29.681628067489218],[77.02525179292799,29.563639776965584]]]},"id":"21","properties":{"tile_id":21}},{"type":"Feature","geometry":{"geodesic":false,"type":"Polygon","coordinates":[[[77.02525179292799,29.681628067489218],[77.16107989062957,29.681628067489218],[77.16107989062957,29.79961635801285],[77.02525179292799,29.79961635801285],[77.02525179292799,29.681628067489218]]]},"id":"22","properties":{"tile_id":22}},{"type":"Feature","geometry":{"geodesic":false,"type":"Polygon","coordinates":[[[77.02525179292799,29.79961635801285],[77.16107989062957,29.79961635801285],[77.16107989062957,29.917604648536486],[77.02525179292799,29.917604648536486],[77.02525179292799,29.79961635801285]]]},"id":"23","properties":{"tile_id":23}},{"type":"Feature","geometry":{"geodesic":false,"type":"Polygon","coordinates":[[[77.02525179292799,29.917604648536486],[77.16107989062957,29.917604648536486],[77.16107989062957,30.03559293906012],[77.02525179292799,30.03559293906012],[77.02525179292799,29.917604648536486]]]},"id":"24","properties":{"tile_id":24}},{"type":"Feature","geometry":{"geodesic":false,"type":"Polygon","coordinates":[[[77.16107989062957,29.79961635801285],[77.29690798833114,29.79961635801285],[77.29690798833114,29.917604648536486],[77.16107989062957,29.917604648536486],[77.16107989062957,29.79961635801285]]]},"id":"28","properties":{"tile_id":28}},{"type":"Feature","geometry":{"geodesic":false,"type":"Polygon","coordinates":[[[77.16107989062957,29.917604648536486],[77.29690798833114,29.917604648536486],[77.29690798833114,30.03559293906012],[77.16107989062957,30.03559293906012],[77.16107989062957,29.917604648536486]]]},"id":"29","properties":{"tile_id":29}}]}